H1 CPF 01  gfz 2022 08 03 00  7151 tandemx   
H2 1003001  6202 36605    2022 08 03 00 59 42 2022 08 08 00 00 42   120 1 1  0 0 0
H9
10 0 59798  38862.000000  0    1738584.544  -6211621.683  -2428639.806
10 0 59798  38982.000000  0    1465184.333  -5899238.418  -3250844.398
10 0 59798  39102.000000  0    1172670.626  -5479135.742  -4016015.905
10 0 59798  39222.000000  0     867983.800  -4958461.815  -4710806.003
10 0 59798  39342.000000  0     558123.743  -4346220.320  -5323128.629
10 0 59798  39462.000000  0     249995.901  -3653103.863  -5842362.841
10 0 59798  39582.000000  0     -49736.297  -2891298.021  -6259527.159
10 0 59798  39702.000000  0    -334789.499  -2074261.336  -6567423.372
10 0 59798  39822.000000  0    -599386.716  -1216485.652  -6760749.313
10 0 59798  39942.000000  0    -838369.499   -333241.037  -6836181.085
10 0 59798  40062.000000  0   -1047294.565    559691.977  -6792423.510
10 0 59798  40182.000000  0   -1222514.049   1446297.019  -6630228.970
10 0 59798  40302.000000  0   -1361237.753   2310601.778  -6352385.711
10 0 59798  40422.000000  0   -1461576.755   3136958.581  -5963676.061
10 0 59798  40542.000000  0   -1522568.532   3910324.569  -5470803.712
10 0 59798  40662.000000  0   -1544182.106   4616534.780  -4882288.970
10 0 59798  40782.000000  0   -1527303.965   5242565.512  -4208333.236
10 0 59798  40902.000000  0   -1473704.180   5776781.535  -3460651.656
10 0 59798  41022.000000  0   -1385982.691   6209161.064  -2652277.147
10 0 59798  41142.000000  0   -1267497.303   6531495.043  -1797339.022
10 0 59798  41262.000000  0   -1122274.398   6737555.194   -910816.938
10 0 59798  41382.000000  0    -954904.446   6823224.844     -8276.883
10 0 59798  41502.000000  0    -770424.247   6786591.303    894407.527
10 0 59798  41622.000000  0    -574188.998   6627993.654   1781344.105
10 0 59798  41742.000000  0    -371737.714   6350022.080   2636912.405
10 0 59798  41862.000000  0    -168655.696   5957471.675   3446045.922
10 0 59798  41982.000000  0      29562.286   5457254.491   4194502.526
10 0 59798  42102.000000  0     217644.924   4858271.955   4869121.589
10 0 59798  42222.000000  0     390671.461   4171241.677   5458057.718
10 0 59798  42342.000000  0     544188.288   3408496.722   5950982.826
10 0 59798  42462.000000  0     674312.862   2583756.666   6339264.765
10 0 59798  42582.000000  0     777822.279   1711873.675   6616112.388
10 0 59798  42702.000000  0     852225.903    808560.742   6776688.552
10 0 59798  42822.000000  0     895820.336   -109893.313   6818188.662
10 0 59798  42942.000000  0     907725.949  -1026916.289   6739887.139
10 0 59798  43062.000000  0     887904.180  -1925951.642   6543150.283
10 0 59798  43182.000000  0     837155.361  -2790757.253   6231414.361
10 0 59798  43302.000000  0     757097.014  -3605700.939   5810129.111
10 0 59798  43422.000000  0     650122.801  -4356044.668   5286665.485
10 0 59798  43542.000000  0     519344.572  -5028213.871   4670192.991
10 0 59798  43662.000000  0     368517.304  -5610050.170   3971526.304
10 0 59798  43782.000000  0     201947.354  -6091041.909   3202939.449
10 0 59798  43902.000000  0      24386.555  -6462524.648   2377950.978
10 0 59798  44022.000000  0    -159085.550  -6717846.391   1511083.927
10 0 59798  44142.000000  0    -343188.172  -6852495.607    617606.887
10 0 59798  44262.000000  0    -522572.010  -6864188.040   -286743.511
10 0 59798  44382.000000  0    -691954.178  -6752906.062  -1186049.961
10 0 59798  44502.000000  0    -846251.234  -6520891.608  -2064503.407
10 0 59798  44622.000000  0    -980707.587  -6172594.999  -2906687.597
10 0 59798  44742.000000  0   -1091016.436  -5714580.732  -3697854.873
10 0 59798  44862.000000  0   -1173429.910  -5155391.768  -4424186.780
10 0 59798  44982.000000  0   -1224855.457  -4505376.906  -5073032.882
10 0 59798  45102.000000  0   -1242936.878  -3776487.863  -5633124.539
10 0 59798  45222.000000  0   -1226118.205  -2982050.568  -6094761.740
10 0 59798  45342.000000  0   -1173689.382  -2136515.285  -6449970.646
10 0 59798  45462.000000  0   -1085813.312  -1255190.963  -6692629.526
10 0 59798  45582.000000  0    -963534.332   -353969.709  -6818563.537
10 0 59798  45702.000000  0    -808767.694    550955.445  -6825608.544
10 0 59798  45822.000000  0    -624269.563   1443374.243  -6713643.293
10 0 59798  45942.000000  0    -413589.356   2307341.803  -6484591.209
10 0 59798  46062.000000  0    -181004.729   3127456.469  -6142391.941
10 0 59798  46182.000000  0      68561.400   3889131.167  -5692942.203
10 0 59798  46302.000000  0     329639.983   4578852.070  -5144003.535
10 0 59798  46422.000000  0     596328.786   5184420.953  -4505080.151
10 0 59798  46542.000000  0     862418.179   5695178.462  -3787265.501
10 0 59798  46662.000000  0    1121527.456   6102201.581  -3003058.487
10 0 59798  46782.000000  0    1367248.582   6398471.368  -2166152.409
10 0 59798  46902.000000  0    1593294.556   6579006.981  -1291198.524
10 0 59798  47022.000000  0    1793648.885   6640961.272   -393547.892
10 0 59798  47142.000000  0    1962712.017   6583673.826    511023.364
10 0 59798  47262.000000  0    2095440.365   6408680.236   1406598.300
10 0 59798  47382.000000  0    2187475.200   6119677.876   2277407.135
10 0 59798  47502.000000  0    2235257.788   5722448.262   3108112.917
10 0 59798  47622.000000  0    2236128.216   5224738.778   3884089.227
10 0 59798  47742.000000  0    2188404.199   4636105.446   4591684.305
10 0 59798  47862.000000  0    2091438.446   3967719.386   5218465.673
10 0 59798  47982.000000  0    1945652.835   3232143.464   5753435.773
10 0 59798  48102.000000  0    1752551.016   2443089.816   6187220.476
10 0 59798  48222.000000  0    1514707.828   1615158.362   6512229.344
10 0 59798  48342.000000  0    1235735.638    763561.399   6722782.438
10 0 59798  48462.000000  0     920228.977    -96157.614   6815202.391
10 0 59798  48582.000000  0     573688.726   -948406.305   6787875.422
10 0 59798  48702.000000  0     202425.950  -1777826.541   6641278.979
10 0 59798  48822.000000  0    -186553.246  -2569571.146   6377973.716
10 0 59798  48942.000000  0    -585679.526  -3309570.820   6002560.765
10 0 59798  49062.000000  0    -986965.247  -3984784.872   5521603.794
10 0 59798  49182.000000  0   -1382161.167  -4583432.862   4943521.218
10 0 59798  49302.000000  0   -1762924.814  -5095206.927   4278447.536
10 0 59798  49422.000000  0   -2120995.888  -5511459.281   3538060.691
10 0 59798  49542.000000  0   -2448374.366  -5825357.663   2735377.855
10 0 59798  49662.000000  0   -2737496.830  -6032004.515   1884525.270
10 0 59798  49782.000000  0   -2981406.949  -6128519.187   1000486.133
10 0 59798  49902.000000  0   -3173916.048  -6114080.352     98830.533
10 0 59798  50022.000000  0   -3309749.522  -5989927.017   -804566.756
10 0 59798  50142.000000  0   -3384675.480  -5759317.835  -1693814.891
10 0 59798  50262.000000  0   -3395612.224  -5427449.241  -2553295.066
10 0 59798  50382.000000  0   -3340711.935  -5001335.072  -3367941.667
10 0 59798  50502.000000  0   -3219417.932  -4489650.921  -4123509.917
10 0 59798  50622.000000  0   -3032494.900  -3902548.944  -4806823.850
10 0 59798  50742.000000  0   -2782032.590  -3251448.513  -5406001.350
10 0 59798  50862.000000  0   -2471423.570  -2548807.368  -5910652.857
10 0 59798  50982.000000  0   -2105315.489  -1807878.979  -6312051.679
10 0 59798  51102.000000  0   -1689538.358  -1042460.575  -6603274.086
10 0 59798  51222.000000  0   -1231009.691   -266637.144  -6779306.715
10 0 59798  51342.000000  0    -737620.131    505473.361  -6837122.438
10 0 59798  51462.000000  0    -218099.797   1259970.222  -6775726.792
10 0 59798  51582.000000  0     318132.214   1983413.552  -6596172.818
10 0 59798  51702.000000  0     861133.176   2663057.738  -6301546.868
10 0 59798  51822.000000  0    1400617.714   3287073.179  -5896922.247
10 0 59798  51942.000000  0    1926148.154   3844751.306  -5389279.985
10 0 59798  52062.000000  0    2427333.190   4326689.783  -4787399.649
10 0 59798  52182.000000  0    2894031.659   4724956.377  -4101719.204
10 0 59798  52302.000000  0    3316557.157   5033227.345  -3344163.762
10 0 59798  52422.000000  0    3685879.986   5246896.639  -2527946.218
10 0 59798  52542.000000  0    3993822.002   5363152.898  -1667340.606
10 0 59798  52662.000000  0    4233238.178   5381021.741   -777433.101
10 0 59798  52782.000000  0    4398180.934   5301372.477    126146.039
10 0 59798  52902.000000  0    4484042.745   5126886.388   1027503.667
10 0 59798  53022.000000  0    4487671.424   4861987.987   1910770.621
10 0 59798  53142.000000  0    4407458.253   4512743.777   2760388.737
10 0 59798  53262.000000  0    4243394.512   4086726.149   3561395.378
10 0 59798  53382.000000  0    3997092.930   3592847.404   4299693.187
10 0 59798  53502.000000  0    3671777.848   3041169.432   4962300.738
10 0 59798  53622.000000  0    3272242.949   2442694.678   5537583.780
10 0 59798  53742.000000  0    2804774.336   1809140.570   6015456.345
10 0 59798  53862.000000  0    2277047.730   1152706.585   6387551.953
10 0 59798  53982.000000  0    1697998.456    485836.272   6647363.906
10 0 59798  54102.000000  0    1077667.080   -179018.285   6790352.773
10 0 59798  54222.000000  0     427023.656   -829628.143   6814022.408
10 0 59798  54342.000000  0    -242226.971  -1454212.961   6717960.770
10 0 59798  54462.000000  0    -917855.875  -2041654.035   6503846.088
10 0 59798  54582.000000  0   -1587332.929  -2581692.313   6175417.883
10 0 59798  54702.000000  0   -2238056.664  -3065107.419   5738415.299
10 0 59798  54822.000000  0   -2857591.035  -3483877.747   5200484.908
10 0 59798  54942.000000  0   -3433907.070  -3831318.443   4571053.829
10 0 59798  55062.000000  0   -3955621.002  -4102192.127   3861168.185
10 0 59798  55182.000000  0   -4412222.932  -4292791.339   3083301.923
10 0 59798  55302.000000  0   -4794292.718  -4400991.288   2251139.141
99
